    CK15X01Y  2018 04 28.6968  7.926132  1.003933  196.2840  281.6253  148.8556  20200129   5.5  4.0  C/2015 XY1 (Lemmon)                                      MPEC 2020-AA5
    CK15X020  2015 12 19.0739  1.926258  0.878334   42.3681  101.1007   72.0980  20200129  16.0  4.0  C/2015 X2 (Catalina)                                     MPC100281
    PK15X030  2015 08  7.1368  2.816001  0.438163  306.6691   77.3331   24.3825  20200129  15.0  4.0  P/2015 X3 (PANSTARRS)                                    MPC 97498
    CK15X040  2015 11  2.4399  3.392819  0.811183  176.2715  262.6207   29.5010  20200129  10.0  4.0  C/2015 X4 (Elenin)                                       MPC109142
    CK15X050  2017 12 30.2275  6.799758  1.002918   27.7067  122.3417  124.3077  20200129   7.5  4.0  C/2015 X5 (PANSTARRS)                                    MPC119995
    PK15X060  2020 10 17.2423  2.278137  0.172314  329.9009  106.9472    4.5648  20200129  16.0  4.0  P/2015 X6 (PANSTARRS)                                    MPC115881
    CK15X070  2016 07 29.5791  3.685129  1.000289  348.4605  139.9089   57.5627  20200129   9.0  4.0  C/2015 X7 (ATLAS)                                        MPC109143
    CK15X080  2015 10 24.1218  1.186368  0.939975   20.4281  191.1495  155.2142  20200129  16.0  4.0  C/2015 X8 (NEOWISE)                                      MPC107048
    CK15Y010  2016 05 14.3393  2.516399  0.990175   24.6949  135.8114   71.1755  20200129  12.0  4.0  C/2015 Y1 (LINEAR)                                       MPC109143
    CK15Y01G  2015 09 27.7821  2.066325  0.878539  102.5252  350.5234   57.2744  20200129  13.0  4.0  C/2015 YG1 (NEOWISE)                                     MPC105543
    CK16A010  2017 11 23.0499  5.325848  1.002002   10.2919  128.2000  121.2045  20200129   6.0  4.0  C/2016 A1 (PANSTARRS)                                    MPC119995
    PK16A020  2015 06 22.4112  3.459574  0.271442  141.6494  291.6149   26.4066  20200129  11.5  4.0  P/2016 A2 (Christensen)                                  MPC100282
    PK16A030  2017 04 29.2155  4.824643  0.388303  340.7373  187.3417    8.5134  20200129  10.0  4.0  P/2016 A3 (PANSTARRS)                                    MPC115881
    CK16A050  2015 06 26.8388  2.944754  0.995610  321.5447  136.1669   40.2398  20200129  13.5  4.0  C/2016 A5 (PANSTARRS)                                    MPC109143
    CK16A060  2015 11  6.3015  2.406903  0.988389  141.0772  300.3659  120.9356  20200129  15.0  4.0  C/2016 A6 (PANSTARRS)                                    MPC109143
    PK16A070  2016 02 25.3568  2.184332  0.565753  352.6263  221.4749   16.6299  20200129  16.0  4.0  P/2016 A7 (PANSTARRS)                                    MPC102098
    CK16A080  2016 08 29.6371  1.884819  0.945018  130.3578  111.3374  148.2431  20200129  12.0  4.0  C/2016 A8 (LINEAR)                                       MPC106345
    CK16B010  2016 12  4.8279  3.212208  0.992695    8.6626  231.9722   50.4687  20200129   9.5  4.0  C/2016 B1 (NEOWISE)                                      MPC107048
    PK16B14A  2021 06 17.3155  1.012155  0.665295  351.9105  180.5374   18.8980  20200129  21.0  4.0  P/2016 BA14 (PANSTARRS)                                  MPC109143
    CK16C010  2016 02 19.3271  8.467057  1.002686  328.7822  181.7979   56.2120  20200129   5.5  4.0  C/2016 C1 (PANSTARRS)                                    MPC110494
    CK16C020  2016 04 19.6180  1.565309  0.976238  214.5287   24.4215   38.0962  20200129  16.0  4.0  C/2016 C2 (NEOWISE)                                      MPC101098
    CK16E010  2017 06  3.9311  8.179634  1.005355   47.4527  233.0543  131.8921  20200129   6.5  4.0  C/2016 E1 (PANSTARRS)                                    MPC110494
    CK16E020  2016 02  6.7177  1.076306  0.992282  321.9117  186.8182  135.9148  20200129  20.0  4.0  C/2016 E2 (Kowalski)                                     MPC 99821
    PK16G010  2021 03 22.4975  2.037732  0.210889  111.2992  204.0594   10.9691  20200129  14.0  4.0  P/2016 G1 (PANSTARRS)                                    MPC102098
    PK16J01a  2022 02 20.1383  2.449899  0.228218   46.8483  199.8337   14.3248  20200129  16.5  4.0  P/2016 J1-A (PANSTARRS)                                  MPEC 2017-D91
    PK16J01b  2022 02 19.3484  2.450085  0.228069   46.7395  199.8386   14.3276  20200129  17.0  4.0  P/2016 J1-B (PANSTARRS)                                  MPEC 2017-A77
    CK16J020  2016 04 12.0486  1.521150  0.997564  318.6178  186.3327  130.3401  20200129  17.0  4.0  C/2016 J2 (Denneau)                                      MPC101099
    CK16K00A  2016 02  2.0707  5.405715  0.998912   63.1843  317.5121  104.6766  20200129   8.5  4.0  C/2016 KA (Catalina)                                     MPC102099
    CK16K010  2016 07 13.2723  2.293189  0.999848   18.2681  325.6358   90.9078  20200129  13.0  4.0  C/2016 K1 (LINEAR)                                       MPC104792
    CK16M010  2018 08 10.2542  2.211441  0.999318  209.8616   92.2031   91.0003  20200129   5.0  4.0  C/2016 M1 (PANSTARRS)                                    MPC119995
    CK16N040  2017 09 16.4661  3.198620  0.998670   55.9414  354.0060   72.5845  20200129   8.5  4.0  C/2016 N4 (MASTER)                                       MPC115881
    CK16N060  2018 07 18.1381  2.668057  0.998585  162.7772  298.9858  105.8404  20200129   7.0  4.0  C/2016 N6 (PANSTARRS)                                    MPC119995
    PK16P010  2021 06 10.0315  2.270431  0.289401  270.0352  319.5655   24.4533  20200129  15.0  4.0  P/2016 P1 (PANSTARRS)                                    MPC102099
    CK16P040  2016 10 17.7539  5.891828  0.984854  356.1348  320.7434   29.8819  20200129  10.5  4.0  C/2016 P4 (PANSTARRS)                                    MPC102099
    CK16Q020  2021 05 11.3304  7.082937  0.999423   84.4831  322.3011  109.3906  20200129   6.0  4.0  C/2016 Q2 (PANSTARRS)                                    MPC118093
    CK16Q040  2018 01 26.5713  7.085435  0.580373   99.3905  271.2847    7.2576  20200129   7.0  4.0  C/2016 Q4 (Kowalski)                                     MPC102955
    CK16R020  2018 05  9.4309  2.603054  0.995562   33.1908   80.5693   58.2249  20200129   7.0  4.0  C/2016 R2 (PANSTARRS)                                    MPC119995
    CK16R030  2016 10 10.5900  0.451026  0.997748  118.1867   78.6467   53.0441  20200129  18.0  4.0  C/2016 R3 (Borisov)                                      MPC102099
    PK16R040  2016 07 20.9924  2.794685  0.475848  173.9933  168.2909   10.8673  20200129  12.5  4.0  P/2016 R4 (Gibbs)                                        MPC109144
    PK16S010  2017 03 16.4247  2.399140  0.710264  273.2673  227.5172   94.6483  20200129  12.0  4.0  P/2016 S1 (PANSTARRS)                                    MPC105543
    CK16T010  2017 02  1.3008  2.302539  0.981314  137.3803   56.2699  129.8458  20200129  14.5  4.0  C/2016 T1 (Matheny)                                      MPC105238
    CK16T020  2016 12 28.9864  1.907253  0.980771   92.2563  339.1410   81.3574  20200129  14.5  4.0  C/2016 T2 (Matheny)                                      MPC107685
    CK16T030  2017 09  6.6788  2.650646  0.980348  194.6899  271.7418   22.6773  20200129  10.5  4.0  C/2016 T3 (PANSTARRS)                                    MPC110082
    CK16U010  2017 01 14.0290  0.321409  1.000393  162.8287   61.4523   46.4064  20200129  17.0  4.0  C/2016 U1 (NEOWISE)                                      MPC103847
    CK16V18Z  2017 03  6.5052  0.912826  0.994722   36.4048   98.9245   24.0053  20200129  19.5  4.0  C/2016 VZ18 (PANSTARRS)                                  MPC106345
    PK16W48M  2017 02 24.4551  1.763642  0.784198   36.0954   59.9018  117.4234  20200129  15.0  4.0  P/2016 WM48 (Lemmon)                                     MPC106345
    CK16X010  2019 04 29.3132  7.563975  0.994844  224.5336  256.4231   26.4549  20200129   6.0  4.0  C/2016 X1 (Lemmon)                                       MPC119995
    CK17A010  2017 05 16.5919  2.292272  0.970437    2.0703  121.0407   49.7941  20200129  13.0  4.0  C/2017 A1 (PANSTARRS)                                    MPC108594
    CK17A030  2017 01 30.7255  3.850746  0.911466  304.0603   97.9076   98.5370  20200129   9.5  4.0  C/2017 A3 (Elenin)                                       MPC108594
    CK17A05B  2018 02 16.6038  9.215096  0.996972   78.3638   42.6652   32.4335  20200129   5.5  4.0  C/2017 AB5 (PANSTARRS)                                   MPC114598
    CK17B030  2019 02  2.6178  3.921625  1.001971  284.7733    2.1789   54.1768  20200129   6.0  4.0  C/2017 B3 (LINEAR)                                       MPC119995
    PK17B040  2017 01  5.8178  2.800894  0.364952   11.0197  121.4578   20.0584            14.5  4.0  P/2017 B4 (PANSTARRS)                                    MPC103847
    CK17C010  2017 01 18.5089  1.501127  0.927226  110.1356  357.4834   65.7415  20200129  18.0  4.0  C/2017 C1 (NEOWISE)                                      MPC104793
    CK17C020  2017 01 21.6142  2.425844  0.975132  138.6692  249.8136  118.5894  20200129  14.0  4.0  C/2017 C2 (PANSTARRS)                                    MPC107685
    PK17D010  2016 06 26.2015  2.719259  0.436941    8.1117   82.1766   20.7615  20200129  14.0  4.0  P/2017 D1 (Fuls)                                         MPC104793
    CK17D020  2017 07 14.7851  2.487384  0.999101  334.4399  330.9881   31.2565  20200129  11.0  4.0  C/2017 D2 (Barros)                                       MPC112391
    CK17D030  2017 04 27.1888  4.973889  1.001917  340.8461  186.6444  125.5751  20200129   8.0  4.0  C/2017 D3 (ATLAS)                                        MPC114598
    PK17D040  2016 09  6.4417  2.809768  0.628859  212.3292  264.9374   10.5301  20200129  13.0  4.0  P/2017 D4 (PANSTARRS)                                    MPC110495
    CK17D050  2017 01  9.2727  2.163843  0.981179  287.7988   92.7358  131.0594  20200129  16.0  4.0  C/2017 D5 (PANSTARRS)                                    MPC104794
